{
  "type": "FeatureCollection",
  "features": [
    {
      "type": "Feature",
      "properties": {
        "norad_id": 66661,
        "name": "SNUGLITE-III",
        "group": "last-30-days",
        "lat": 56.732218991531205,
        "lon": 119.20057426923846,
        "alt_km": 585.8313870871461,
        "timestamp": "2025-12-26T05:31:11.215935+00:00",
        "meta_object_name": "SNUGLITE-III",
        "meta_object_id": "2025-274M",
        "meta_epoch": "2025-12-25T17:42:50.630400",
        "meta_mean_motion": 14.93161533,
        "meta_eccentricity": 0.00134664,
        "meta_inclination": 97.7401,
        "meta_ra_of_asc_node": 286.7518,
        "meta_arg_of_pericenter": 233.865,
        "meta_mean_anomaly": 126.1324,
        "meta_ephemeris_type": 0,
        "meta_classification_type": "U",
        "meta_norad_cat_id": 66661,
        "meta_element_set_no": 999,
        "meta_rev_at_epoch": 434,
        "meta_bstar": 0.00027773641,
        "meta_mean_motion_dot": 2.847e-05,
        "meta_mean_motion_ddot": 0,
        "tle_line1": "1 66661U 25274M   25359.73808600  .00002847  00000+0  27774-3 0  9991",
        "tle_line2": "2 66661  97.7401 286.7518 0013466 233.8650 126.1324 14.93161533  4345"
      },
      "geometry": {
        "type": "Point",
        "coordinates": [
          119.20057426923846,
          56.732218991531205
        ]
      }
    },
    {
      "type": "Feature",
      "properties": {
        "norad_id": 66662,
        "name": "2025-274N",
        "group": "last-30-days",
        "lat": 50.87179727676983,
        "lon": 116.86360133677962,
        "alt_km": 585.5096716250891,
        "timestamp": "2025-12-26T05:31:11.215945+00:00",
        "meta_object_name": "2025-274N",
        "meta_object_id": "2025-274N",
        "meta_epoch": "2025-12-25T17:41:15.360576",
        "meta_mean_motion": 14.93217933,
        "meta_eccentricity": 0.00139066,
        "meta_inclination": 97.7402,
        "meta_ra_of_asc_node": 286.7537,
        "meta_arg_of_pericenter": 233.6564,
        "meta_mean_anomaly": 126.3373,
        "meta_ephemeris_type": 0,
        "meta_classification_type": "U",
        "meta_norad_cat_id": 66662,
        "meta_element_set_no": 999,
        "meta_rev_at_epoch": 434,
        "meta_bstar": 0.00029061872,
        "meta_mean_motion_dot": 2.986e-05,
        "meta_mean_motion_ddot": 0,
        "tle_line1": "1 66662U 25274N   25359.73698334  .00002986  00000+0  29062-3 0  9999",
        "tle_line2": "2 66662  97.7402 286.7537 0013906 233.6564 126.3373 14.93217933  4341"
      },
      "geometry": {
        "type": "Point",
        "coordinates": [
          116.86360133677962,
          50.87179727676983
        ]
      }
    },
    {
      "type": "Feature",
      "properties": {
        "norad_id": 66663,
        "name": "KSLV-II R/B",
        "group": "last-30-days",
        "lat": -36.739736030865764,
        "lon": 101.62015205803878,
        "alt_km": 557.0398585838384,
        "timestamp": "2025-12-26T05:31:11.215957+00:00",
        "meta_object_name": "KSLV-II R/B",
        "meta_object_id": "2025-274P",
        "meta_epoch": "2025-12-23T05:59:25.426176",
        "meta_mean_motion": 14.97536982,
        "meta_eccentricity": 0.00600006,
        "meta_inclination": 97.7435,
        "meta_ra_of_asc_node": 284.4956,
        "meta_arg_of_pericenter": 282.7951,
        "meta_mean_anomaly": 76.657,
        "meta_ephemeris_type": 0,
        "meta_classification_type": "U",
        "meta_norad_cat_id": 66663,
        "meta_element_set_no": 999,
        "meta_rev_at_epoch": 398,
        "meta_bstar": 0.0011394408,
        "meta_mean_motion_dot": 0.00013749,
        "meta_mean_motion_ddot": 0,
        "tle_line1": "1 66663U 25274P   25357.24959984  .00013749  00000+0  11394-2 0  9992",
        "tle_line2": "2 66663  97.7435 284.4956 0060000 282.7951  76.6570 14.97536982  3987"
      },
      "geometry": {
        "type": "Point",
        "coordinates": [
          101.62015205803878,
          -36.739736030865764
        ]
      }
    },
    {
      "type": "Feature",
      "properties": {
        "norad_id": 66664,
        "name": "SOYUZ-MS 28",
        "group": "last-30-days",
        "lat": 50.793245277627065,
        "lon": 179.46061012284062,
        "alt_km": 412.22131980863196,
        "timestamp": "2025-12-26T05:31:11.215967+00:00",
        "meta_object_name": "SOYUZ-MS 28",
        "meta_object_id": "2025-275A",
        "meta_epoch": "2025-12-25T21:21:30.152448",
        "meta_mean_motion": 15.49823805,
        "meta_eccentricity": 0.00032345,
        "meta_inclination": 51.6319,
        "meta_ra_of_asc_node": 77.3524,
        "meta_arg_of_pericenter": 301.523,
        "meta_mean_anomaly": 58.5443,
        "meta_ephemeris_type": 0,
        "meta_classification_type": "U",
        "meta_norad_cat_id": 66664,
        "meta_element_set_no": 999,
        "meta_rev_at_epoch": 128,
        "meta_bstar": 0.00025321218,
        "meta_mean_motion_dot": 0.00013933,
        "meta_mean_motion_ddot": 0,
        "tle_line1": "1 66664U 25275A   25359.88993232  .00013933  00000+0  25321-3 0  9991",
        "tle_line2": "2 66664  51.6319  77.3524 0003234 301.5230  58.5443 15.49823805  1284"
      },
      "geometry": {
        "type": "Point",
        "coordinates": [
          179.46061012284062,
          50.793245277627065
        ]
      }
    },
    {
      "type": "Feature",
      "properties": {
        "norad_id": 66666,
        "name": "FORMOSAT-8A",
        "group": "last-30-days",
        "lat": -20.641159717299832,
        "lon": 74.87695162375185,
        "alt_km": 573.6387372419658,
        "timestamp": "2025-12-26T05:31:11.215978+00:00",
        "meta_object_name": "FORMOSAT-8A",
        "meta_object_id": "2025-276A",
        "meta_epoch": "2025-12-25T21:36:34.043328",
        "meta_mean_motion": 15.00363321,
        "meta_eccentricity": 0.00040471,
        "meta_inclination": 97.6575,
        "meta_ra_of_asc_node": 71.6474,
        "meta_arg_of_pericenter": 184.215,
        "meta_mean_anomaly": 175.9041,
        "meta_ephemeris_type": 0,
        "meta_classification_type": "U",
        "meta_norad_cat_id": 66666,
        "meta_element_set_no": 999,
        "meta_rev_at_epoch": 406,
        "meta_bstar": 0.00032796533,
        "meta_mean_motion_dot": 4.059e-05,
        "meta_mean_motion_ddot": 0,
        "tle_line1": "1 66666U 25276A   25359.90039402  .00004059  00000+0  32797-3 0  9991",
        "tle_line2": "2 66666  97.6575  71.6474 0004047 184.2150 175.9041 15.00363321  4067"
      },
      "geometry": {
        "type": "Point",
        "coordinates": [
          74.87695162375185,
          -20.641159717299832
        ]
      }
    },
    {
      "type": "Feature",
      "properties": {
        "norad_id": 66667,
        "name": "PELICAN-5",
        "group": "last-30-days",
        "lat": -54.272515366741864,
        "lon": -118.69764416340088,
        "alt_km": 518.7453306989391,
        "timestamp": "2025-12-26T05:31:11.215989+00:00",
        "meta_object_name": "PELICAN-5",
        "meta_object_id": "2025-276B",
        "meta_epoch": "2025-12-25T20:34:32.895552",
        "meta_mean_motion": 15.17625706,
        "meta_eccentricity": 0.00023507,
        "meta_inclination": 97.4408,
        "meta_ra_of_asc_node": 71.4046,
        "meta_arg_of_pericenter": 200.3344,
        "meta_mean_anomaly": 159.7797,
        "meta_ephemeris_type": 0,
        "meta_classification_type": "U",
        "meta_norad_cat_id": 66667,
        "meta_element_set_no": 999,
        "meta_rev_at_epoch": 411,
        "meta_bstar": 0.00040790584,
        "meta_mean_motion_dot": 8.142e-05,
        "meta_mean_motion_ddot": 0,
        "tle_line1": "1 66667U 25276B   25359.85732518  .00008142  00000+0  40791-3 0  9994",
        "tle_line2": "2 66667  97.4408  71.4046 0002350 200.3344 159.7797 15.17625706  4114"
      },
      "geometry": {
        "type": "Point",
        "coordinates": [
          -118.69764416340088,
          -54.272515366741864
        ]
      }
    },
    {
      "type": "Feature",
      "properties": {
        "norad_id": 66668,
        "name": "TRANSPORTER-15C",
        "group": "last-30-days",
        "lat": 12.875264243582926,
        "lon": -106.59649426836079,
        "alt_km": 500.3049399403235,
        "timestamp": "2025-12-26T05:31:11.216001+00:00",
        "meta_object_name": "TRANSPORTER-15C",
        "meta_object_id": "2025-276C",
        "meta_epoch": "2025-12-25T11:25:52.457376",
        "meta_mean_motion": 15.20396271,
        "meta_eccentricity": 0.0024543,
        "meta_inclination": 97.4284,
        "meta_ra_of_asc_node": 70.9501,
        "meta_arg_of_pericenter": 277.3035,
        "meta_mean_anomaly": 82.5411,
        "meta_ephemeris_type": 0,
        "meta_classification_type": "U",
        "meta_norad_cat_id": 66668,
        "meta_element_set_no": 999,
        "meta_rev_at_epoch": 405,
        "meta_bstar": 0.10105,
        "meta_mean_motion_dot": 0.02461991,
        "meta_mean_motion_ddot": 0,
        "tle_line1": "1 66668U 25276C   25359.47630159  .02461991  00000+0  10105+0 0  9990",
        "tle_line2": "2 66668  97.4284  70.9501 0024543 277.3035  82.5411 15.20396271  4051"
      },
      "geometry": {
        "type": "Point",
        "coordinates": [
          -106.59649426836079,
          12.875264243582926
        ]
      }
    }
  ]
}